[{"OBJECT_NAME":"STARLINK-6144","OBJECT_ID":"2023-083U","EPOCH":"2026-03-09T08:42:20.615904","MEAN_MOTION":15.02523379,"ECCENTRICITY":0.00014695,"INCLINATION":43.0031,"RA_OF_ASC_NODE":83.3416,"ARG_OF_PERICENTER":275.7731,"MEAN_ANOMALY":84.2944,"EPHEMERIS_TYPE":0,"CLASSIFICATION_TYPE":"U","NORAD_CAT_ID":56894,"ELEMENT_SET_NO":999,"REV_AT_EPOCH":15174,"BSTAR":-0.00013382279,"MEAN_MOTION_DOT":-2.01e-5,"MEAN_MOTION_DDOT":0},{"OBJECT_NAME":"FENGYUN 1C DEB","OBJECT_ID":"1999-025AZA","EPOCH":"2026-03-09T00:58:11.092224","MEAN_MOTION":14.92309795,"ECCENTRICITY":0.00550776,"INCLINATION":98.9912,"RA_OF_ASC_NODE":286.2715,"ARG_OF_PERICENTER":182.0101,"MEAN_ANOMALY":178.0901,"EPHEMERIS_TYPE":0,"CLASSIFICATION_TYPE":"U","NORAD_CAT_ID":30912,"ELEMENT_SET_NO":999,"REV_AT_EPOCH":687,"BSTAR":0.0018683847,"MEAN_MOTION_DOT":0.00019628,"MEAN_MOTION_DDOT":0}]
